P/2010 H5 (Scotti),e,14.0687,24.8100,175.3124,7.157476,0.0514712,0.15384578,196.1309,09/16.0/2020,2000,g 13.0,2.0
# From MPC 98558
P/2010 J3 (McMillan),e,13.2903,106.4065,157.5794,8.969187,0.0366923,0.72737880,134.6554,09/16.0/2020,2000,g 11.0,4.0
# From MPC 84315
P/2010 JC81 (WISE),e,38.7068,30.8403,12.4478,8.111780,0.0426609,0.77657660,146.6732,09/16.0/2020,2000,g  9.0,4.0
# From MPC 74248
P/2010 T2 (PANSTARRS),e,7.9245,59.1158,353.8206,5.508058,0.0762441,0.32158852,261.7859,09/16.0/2020,2000,g 11.5,4.0
# From MPC 98558
P/2010 TO20 (LINEAR-Grauer),e,2.4793,43.2990,266.7621,5.828372,0.0700460,0.05438998,304.3364,09/16.0/2020,2000,g  9.0,4.0
# From MPC 82316
P/2010 U1 (Boattini),e,8.2141,280.7187,85.8839,6.512782,0.0592999,0.24785517,230.6894,09/16.0/2020,2000,g  9.5,4.0
# From MPEC 2020-R04
C/2010 U3 (Boattini),e,55.5189,43.0378,88.0740,2503,0.0000079,0.99662575,0.0000,02/26.0068/2019,2000,g  1.0,4.0
# From MPC 79021
P/2010 UH55 (Spacewatch),e,8.0482,233.0125,225.1846,6.650219,0.0574712,0.56359277,197.7605,09/16.0/2020,2000,g 11.0,4.0
# From MPC 75009
P/2010 WK (LINEAR),e,11.4003,11.3138,40.9970,5.759708,0.0713023,0.68971321,259.7695,09/16.0/2020,2000,g 14.5,2.0
# From MPC 82317
P/2011 A2 (Scotti),e,4.4752,54.6753,94.5367,3.105095,0.1801324,0.49939359,280.4351,09/16.0/2020,2000,g 16.5,4.0
# From MPC 84021
P/2011 C2 (Gibbs),e,10.8853,12.1232,161.0452,7.414224,0.0488209,0.26904849,155.1642,09/16.0/2020,2000,g  9.0,4.0
# From MPC 79866
P/2011 FR143 (Lemmon),e,15.9895,190.9500,350.1446,6.856025,0.0549029,0.45113786,191.2677,09/16.0/2020,2000,g 14.0,2.0
# From MPC 82317
P/2011 JB15 (Spacewatch-Boattini),e,19.1463,153.5993,110.9760,7.353267,0.0494292,0.31819625,156.0877,09/16.0/2020,2000,g  9.0,4.0
# From MPEC 2020-R04
C/2011 KP36 (Spacewatch),e,18.9837,173.3046,180.6404,38.84042,0.0040717,0.87437823,6.4027,09/16.0/2020,2000,g  4.5,4.0
# From MPC 87913
P/2011 N1 (ASH),e,35.7105,77.6049,330.3416,6.250527,0.0630709,0.54355818,191.8778,09/16.0/2020,2000,g 11.5,4.0
# From MPC 75714
P/2011 NO1 (Elenin),e,15.2490,295.7899,263.8349,5.522880,0.0759374,0.77495432,267.5918,09/16.0/2020,2000,g 15.0,4.0
# From MPC 82318
P/2011 P1 (McNaught),e,5.6573,4.2410,348.8834,7.469523,0.0482797,0.32682896,179.2582,09/16.0/2020,2000,g  9.0,4.0
# From MPC 77806
P/2011 Q3 (McNaught),e,6.0565,32.0245,310.9719,4.970434,0.0889432,0.53250163,297.5150,09/16.0/2020,2000,g 13.5,4.0
# From MPEC 2020-R04
P/2011 R3 (Novichonok-Gerke),e,19.2620,189.6349,225.2290,4.777549,0.0943836,0.27178032,289.8662,09/16.0/2020,2000,g 11.0,4.0
# From MPC 98558
P/2011 S1 (Gibbs),e,2.6837,218.9076,192.5288,8.588891,0.0391560,0.20008879,87.2175,09/16.0/2020,2000,g  8.0,4.0
# From MPEC 2020-R04
P/2011 U2 (Bressi),e,9.8919,263.1957,155.5741,4.887370,0.0912203,0.13512889,263.1996,09/16.0/2020,2000,g 10.0,4.0
# From MPC 79022
P/2011 UA134 (Spacewatch-PANSTARRS),e,10.4440,40.4284,32.4632,5.603268,0.0743091,0.62930132,239.8513,09/16.0/2020,2000,g 17.5,4.0
# From MPC 77406
P/2011 V1 (Boattini),e,7.3773,46.8523,269.2381,3.854555,0.1302395,0.55062922,93.1060,09/16.0/2020,2000,g 15.5,4.0
# From MPC 82718
P/2011 W1 (PANSTARRS),e,3.7186,161.7901,282.7293,4.660129,0.0979732,0.28701517,310.0612,09/16.0/2020,2000,g 11.5,4.0
# From MPC 79342
P/2011 Y2 (Boattini),e,6.3714,309.3686,131.9378,6.239668,0.0632356,0.70922372,197.0051,09/16.0/2020,2000,g 15.0,4.0
# From MPC 94669
P/2012 B1 (PANSTARRS),e,7.6160,36.1990,162.5914,6.527298,0.0591022,0.40989248,154.5119,09/16.0/2020,2000,g  9.0,4.0
# From MPC 78590
P/2012 C3 (PANSTARRS),e,9.0920,135.3677,344.9542,9.748681,0.0323806,0.63011148,359.9758,10/06.0/2011,2000,g 13.0,4.0
# From MPC 84931
P/2012 F2 (PANSTARRS),e,14.7267,227.0610,33.2479,6.328253,0.0619125,0.54283070,167.9470,09/16.0/2020,2000,g 12.0,4.0
# From MPEC 2020-R04
C/2012 F3 (PANSTARRS),h,04/07.5491/2015,11.3296,164.5157,104.3377,1.004629,3.470334,2000,6.5,4.0
# From MPC 79344
P/2012 G1 (PANSTARRS),e,11.6925,282.5440,286.1149,4.172871,0.1156250,0.38072240,359.9500,06/01.0/2012,2000,g 15.0,4.0
# From MPC 80898
P/2012 K3 (Gibbs),e,13.1946,125.8086,172.1408,3.624561,0.1428305,0.42348505,56.4906,09/16.0/2020,2000,g 15.0,4.0
# From MPC 88326
P/2012 NJ (La Sagra),e,84.6548,315.5500,338.3242,8.458467,0.0400651,0.84740149,120.8786,09/16.0/2020,2000,g 14.5,4.0
# From MPC 81470
P/2012 O1 (McNaught),e,7.4330,91.9838,238.2144,3.540011,0.1479780,0.59453533,83.3976,09/16.0/2020,2000,g 17.5,4.0
# From MPC 80899
P/2012 O2 (McNaught),e,24.4865,120.6785,183.3980,3.622764,0.1429368,0.53281969,71.3088,09/16.0/2020,2000,g 17.0,4.0
# From MPC 82720
P/2012 O3 (McNaught),e,16.6140,336.4088,344.7031,4.575194,0.1007140,0.64692082,297.4799,09/16.0/2020,2000,g 16.5,4.0
# From MPC 82720
P/2012 S2 (La Sagra),e,8.6874,51.1928,312.5053,4.410717,0.1063997,0.69116749,316.2901,09/16.0/2020,2000,g 17.0,4.0
# From MPC 82720
P/2012 SB6 (Lemmon),e,10.9284,8.2090,14.4056,3.826012,0.1316996,0.40489865,11.6538,09/16.0/2020,2000,g 14.0,4.0
# From MPC 82320
P/2012 T2 (PANSTARRS),e,12.5558,73.7308,310.4316,5.737940,0.0717084,0.16069099,194.0924,09/16.0/2020,2000,g 10.0,4.0
# From MPC 80900
P/2012 T3 (PANSTARRS),e,9.5687,114.4080,195.4398,6.152522,0.0645839,0.61719525,197.6159,09/16.0/2020,2000,g 15.0,4.0
# From MPC 87914
P/2012 TK8 (Tenagra),e,6.3405,288.9698,127.8930,4.129331,0.1174585,0.27433104,312.4807,09/16.0/2020,2000,g 13.0,4.0
# From MPC 82720
P/2012 U2 (PANSTARRS),e,10.7488,185.2728,228.3252,7.143015,0.0516276,0.49775230,148.1265,09/16.0/2020,2000,g 12.5,4.0
# From MPC 84024
P/2012 US27 (Siding Spring),e,39.3291,49.1708,0.8209,5.166243,0.0839348,0.64737943,234.3000,09/16.0/2020,2000,g 13.5,4.0
# From MPC 82721
P/2012 WA34 (Lemmon-PANSTARRS),e,6.1168,94.4586,353.1030,4.764090,0.0947838,0.34251839,263.5086,09/16.0/2020,2000,g 13.5,4.0
# From MPC 84024
P/2013 A2 (Scotti),e,3.3613,355.8138,134.5425,4.013704,0.1225705,0.45438796,341.2722,09/16.0/2020,2000,g 15.5,4.0
# From MPC 82721
P/2013 AL76 (Catalina),e,144.8095,145.9534,27.1250,6.497963,0.0595029,0.68606873,168.7536,09/16.0/2020,2000,g 16.0,4.0
# From MPC115880
C/2013 C2 (Tenagra),e,21.3399,247.5310,309.5452,16.00602,0.0153914,0.42778273,28.1591,09/16.0/2020,2000,g  4.0,4.0
# From MPC 88695
P/2013 EW90 (Tenagra),e,31.7879,160.2960,346.3461,4.116446,0.1180104,0.19493233,341.9723,09/16.0/2020,2000,g 12.0,4.0
# From MPC 91612
P/2013 G1 (Kowalski),e,5.4683,221.4103,51.3708,6.886852,0.0545347,0.51324812,134.6139,09/16.0/2020,2000,g 11.0,4.0
# From MPC 84025
P/2013 G4 (PANSTARRS),e,5.9161,339.6449,214.7162,4.439197,0.1053774,0.40965341,292.3998,09/16.0/2020,2000,g 15.0,4.0
# From MPC 91613
P/2013 J2 (McNaught),e,15.5353,289.4279,37.7223,6.223446,0.0634830,0.65745477,163.5980,09/16.0/2020,2000,g 13.0,4.0
# From MPC 87066
P/2013 J4 (PANSTARRS),e,5.0352,84.0011,118.7706,2.475100,0.2531133,0.23099371,359.9443,11/04.0/2013,2000,g 14.0,4.0
# From MPC 86229
P/2013 N3 (PANSTARRS),e,2.1730,17.4999,323.8441,7.390821,0.0490529,0.59300927,117.9893,09/16.0/2020,2000,g 13.0,4.0
# From MPC 85834
P/2013 N5 (PANSTARRS),e,23.4159,187.1691,176.8833,6.799700,0.0555865,0.73171351,146.3752,09/16.0/2020,2000,g 17.0,4.0
# From MPC xxxxx
P/2013 O2 (PANSTARRS),e,13.3185,207.1509,214.2668,3.789519,0.1336066,0.44680378,326.7941,09/16.0/2020,2000,g 13.5,4.0
# From MPC 85834
P/2013 P1 (PANSTARRS),e,18.7195,160.6252,138.0794,8.567477,0.0393029,0.60613490,108.2890,09/16.0/2020,2000,g 12.0,4.0
# From MPC 94671
P/2013 R3 (Catalina-PANSTARRS),e,0.8653,342.0012,11.1545,3.034006,0.1865003,0.27502373,121.0971,09/16.0/2020,2000,g 14.0,4.0
# From unp
P/2013 R3-A (Catalina-PANSTARRS),e,0.8647,341.9681,11.1935,3.033865,0.1865133,0.27499312,121.1284,09/16.0/2020,2000,g  9.0,4.0
# From MPEC 2015-M77
P/2013 R3-B (Catalina-PANSTARRS),e,0.8660,342.0239,11.1284,3.034082,0.1864932,0.27503880,121.0803,09/16.0/2020,2000,g  9.0,4.0
# From MPC 85835
P/2013 T1 (PANSTARRS),e,24.2708,10.0909,346.0737,5.861886,0.0694461,0.62349266,180.7760,09/16.0/2020,2000,g 16.5,4.0
# From MPC 86643
P/2013 T2 (Schwartz),e,9.4559,0.8192,345.4731,3.489053,0.1512317,0.50115109,43.9210,09/16.0/2020,2000,g 16.0,4.0
# From MPC 88696
P/2013 TL117 (Lemmon),e,9.3648,3.3151,112.2472,3.609937,0.1436993,0.68921613,345.7474,09/16.0/2020,2000,g 17.5,4.0
# From MPC110080
C/2013 US10 (Catalina),h,11/16.7992/2015,148.7695,186.3984,340.5894,1.000624,0.821080,2000,4.4,4.0
# From MPC111767
C/2013 V4 (Catalina),e,67.8892,55.6078,40.3269,3141,0.0000056,0.99835044,0.0000,10/05.4359/2015,2000,g  6.0,4.0
# From MPC 91613
P/2013 W1 (PANSTARRS),e,4.6955,117.8478,1.2955,3.491183,0.1510933,0.59286309,0.8595,09/16.0/2020,2000,g 17.5,4.0
# From MPC111767
C/2013 X1 (PANSTARRS),h,04/19.4680/2016,163.1939,131.5732,165.1570,1.000418,1.322563,2000,10.5,2.0
# From MPC101095
P/2013 YG46 (Spacewatch),e,7.8559,48.8718,242.4866,3.276470,0.1661861,0.45491394,220.0785,09/16.0/2020,2000,g 10.0,4.0
# From MPC 89728
P/2014 A2 (Hill),e,24.5445,106.6285,356.2543,5.925892,0.0683240,0.64558645,172.6208,09/16.0/2020,2000,g 15.0,4.0
# From MPC 92981
P/2014 A3 (PANSTARRS),e,13.6805,230.2303,212.7405,4.632350,0.0988558,0.24654324,266.7857,09/16.0/2020,2000,g 12.0,4.0
# From MPC108592
C/2014 A4 (SONEAR),e,121.3827,29.6579,356.5740,2575,0.0000075,0.99837893,0.0000,09/03.8250/2015,2000,g  6.0,4.0
# From MPC119994
C/2014 B1 (Schwartz),e,28.4043,161.4105,345.7949,12853,0.0000007,0.99925661,0.0000,09/09.2414/2017,2000,g  4.0,4.0
# From MPC102095
P/2014 C1 (TOTAS),e,2.6845,167.7693,24.0837,3.041568,0.1858051,0.44740505,96.9265,09/16.0/2020,2000,g 15.5,4.0
# From MPC 91614
P/2014 E1 (Larson),e,15.9762,39.0317,186.0203,3.712026,0.1378122,0.42352054,317.6629,09/16.0/2020,2000,g 14.0,4.0
# From MPC 94280
C/2014 F3 (Sheppard-Trujillo),e,6.5685,326.7971,2.8735,15.99310,0.0154101,0.64396859,356.3292,09/16.0/2020,2000,g  6.0,4.0
# From MPC 98560
P/2014 L2 (NEOWISE),e,5.1970,149.3502,182.6383,6.303705,0.0622745,0.64804570,140.2107,09/16.0/2020,2000,g 12.0,4.0
# From MPC 90769
P/2014 L3 (Hill),e,6.2779,115.4694,178.6284,8.166186,0.0422353,0.77392506,95.8153,09/16.0/2020,2000,g 16.0,4.0
# From MPC103844
